$$SOE
2459580.500000000, A.D. 2022-Jan-01 00:00:00.0000, -1.335925721101972E+08, 4.363513422829771E+08, -3.607582743555275E+07,
2459587.500000000, A.D. 2022-Jan-08 00:00:00.0000, -1.434336991341912E+08, 4.342490181501040E+08, -3.726982336874537E+07,
2459594.500000000, A.D. 2022-Jan-15 00:00:00.0000, -1.532028031213853E+08, 4.319284679110193E+08, -3.844508920380336E+07,
2459601.500000000, A.D. 2022-Jan-22 00:00:00.0000, -1.628955035888969E+08, 4.293923584402490E+08, -3.960116835193947E+07,
2459608.500000000, A.D. 2022-Jan-29 00:00:00.0000, -1.725075146890079E+08, 4.266434218964142E+08, -4.073761923280783E+07,
2459615.500000000, A.D. 2022-Feb-05 00:00:00.0000, -1.820346468143436E+08, 4.236844519176663E+08, -4.185401491479753E+07,
2459622.500000000, A.D. 2022-Feb-12 00:00:00.0000, -1.914728059619272E+08, 4.205182988582639E+08, -4.294994303485297E+07,
2459629.500000000, A.D. 2022-Feb-19 00:00:00.0000, -2.008179921898110E+08, 4.171478664382714E+08, -4.402500568465343E+07,
2459636.500000000, A.D. 2022-Feb-26 00:00:00.0000, -2.100662984827880E+08, 4.135761090851730E+08, -4.507881920370114E+07,
2459643.500000000, A.D. 2022-Mar-05 00:00:00.0000, -2.192139098721834E+08, 4.098060293492987E+08, -4.611101394540951E+07,
2459650.500000000, A.D. 2022-Mar-12 00:00:00.0000, -2.282571025925430E+08, 4.058406753251466E+08, -4.712123404275866E+07,
2459657.500000000, A.D. 2022-Mar-19 00:00:00.0000, -2.371922432089304E+08, 4.016831381042129E+08, -4.810913717853427E+07,
2459664.500000000, A.D. 2022-Mar-26 00:00:00.0000, -2.460157876971636E+08, 3.973365492508706E+08, -4.907439436341330E+07,
2459671.500000000, A.D. 2022-Apr-02 00:00:00.0000, -2.547242804137949E+08, 3.928040782428895E+08, -5.001668973334120E+07,
2459678.500000000, A.D. 2022-Apr-09 00:00:00.0000, -2.633143526882296E+08, 3.880889298787807E+08, -5.093572039133231E+07,
2459685.500000000, A.D. 2022-Apr-16 00:00:00.0000, -2.717827206843508E+08, 3.831943423033704E+08, -5.183119627353977E+07,
2459692.500000000, A.D. 2022-Apr-23 00:00:00.0000, -2.801261838053798E+08, 3.781235867338961E+08, -5.270283983533008E+07,
2459699.500000000, A.D. 2022-Apr-30 00:00:00.0000, -2.883416255158901E+08, 3.728799666402813E+08, -5.355038557012589E+07,
2459706.500000000, A.D. 2022-May-07 00:00:00.0000, -2.964260135198715E+08, 3.674668144026664E+08, -5.437357980315237E+07,
2459713.500000000, A.D. 2022-May-14 00:00:00.0000, -3.043763979091204E+08, 3.618874884798395E+08, -5.517218063907932E+07,
2459720.500000000, A.D. 2022-May-21 00:00:00.0000, -3.121899093178611E+08, 3.561453718456021E+08, -5.594595781600741E+07,
2459727.500000000, A.D. 2022-May-28 00:00:00.0000, -3.198637575652856E+08, 3.502438707328942E+08, -5.669469250077501E+07,
2459734.500000000, A.D. 2022-Jun-04 00:00:00.0000, -3.273952305111010E+08, 3.441864133703285E+08, -5.741817707669461E+07,
2459741.500000000, A.D. 2022-Jun-11 00:00:00.0000, -3.347816929817712E+08, 3.379764487106127E+08, -5.811621493688557E+07,
2459748.500000000, A.D. 2022-Jun-18 00:00:00.0000, -3.420205857311150E+08, 3.316174451616486E+08, -5.878862028577088E+07,
2459755.500000000, A.D. 2022-Jun-25 00:00:00.0000, -3.491094244080272E+08, 3.251128892847852E+08, -5.943521795423333E+07,
2459762.500000000, A.D. 2022-Jul-02 00:00:00.0000, -3.560457983992806E+08, 3.184662843921610E+08, -6.005584324612875E+07,
2459769.500000000, A.D. 2022-Jul-09 00:00:00.0000, -3.628273691589549E+08, 3.116811492176781E+08, -6.065034183744972E+07,
2459776.500000000, A.D. 2022-Jul-16 00:00:00.0000, -3.694518680816665E+08, 3.047610177418261E+08, -6.121856963454807E+07,
2459783.500000000, A.D. 2022-Jul-23 00:00:00.0000, -3.759170961206807E+08, 2.977094402460998E+08, -6.176039238366055E+07,
2459790.500000000, A.D. 2022-Jul-30 00:00:00.0000, -3.822209250685803E+08, 2.905299822420514E+08, -6.227568531377224E+07,
2459797.500000000, A.D. 2022-Aug-06 00:00:00.0000, -3.883612969014363E+08, 2.832262219203667E+08, -6.276433308930309E+07,
2459804.500000000, A.D. 2022-Aug-13 00:00:00.0000, -3.943362220111553E+08, 2.758017488705505E+08, -6.322622977154004E+07,
2459811.500000000, A.D. 2022-Aug-20 00:00:00.0000, -4.001437778982567E+08, 2.682601635660585E+08, -6.366127868637062E+07,
2459818.500000000, A.D. 2022-Aug-27 00:00:00.0000, -4.057821082584981E+08, 2.606050768873006E+08, -6.406939226415647E+07,
2459825.500000000, A.D. 2022-Sep-03 00:00:00.0000, -4.112494222160168E+08, 2.528401095704524E+08, -6.445049188341649E+07,
2459832.500000000, A.D. 2022-Sep-10 00:00:00.0000, -4.165439936130913E+08, 2.449688916041766E+08, -6.480450772440606E+07,
2459839.500000000, A.D. 2022-Sep-17 00:00:00.0000, -4.216641603268754E+08, 2.369950615704543E+08, -6.513137863509936E+07,
2459846.500000000, A.D. 2022-Sep-24 00:00:00.0000, -4.266083235522096E+08, 2.289222658760449E+08, -6.543105201882538E+07,
2459853.500000000, A.D. 2022-Oct-01 00:00:00.0000, -4.313749468103849E+08, 2.207541578491206E+08, -6.570348376700120E+07,
2459860.500000000, A.D. 2022-Oct-08 00:00:00.0000, -4.359625542772537E+08, 2.124943972198122E+08, -6.594863823156549E+07,
2459867.500000000, A.D. 2022-Oct-15 00:00:00.0000, -4.403697293644139E+08, 2.041466511809728E+08, -6.616648805408829E+07,
2459874.500000000, A.D. 2022-Oct-22 00:00:00.0000, -4.445951157380769E+08, 1.957145953438993E+08, -6.635701379015028E+07,
2459881.500000000, A.D. 2022-Oct-29 00:00:00.0000, -4.486374182794612E+08, 1.872019119957598E+08, -6.652020377099343E+07,
2459888.500000000, A.D. 2022-Nov-05 00:00:00.0000, -4.524954018863872E+08, 1.786122883988660E+08, -6.665605417092475E+07,
2459895.500000000, A.D. 2022-Nov-12 00:00:00.0000, -4.561678900807887E+08, 1.699494163965462E+08, -6.676456899667510E+07,
2459902.500000000, A.D. 2022-Nov-19 00:00:00.0000, -4.596537641426504E+08, 1.612169923699276E+08, -6.684576001114950E+07,
2459909.500000000, A.D. 2022-Nov-26 00:00:00.0000, -4.629519625085716E+08, 1.524187171472029E+08, -6.689964664830380E+07,
2459916.500000000, A.D. 2022-Dec-03 00:00:00.0000, -4.660614802688004E+08, 1.435582958523539E+08, -6.692625593524195E+07,
2459923.500000000, A.D. 2022-Dec-10 00:00:00.0000, -4.689813687171342E+08, 1.346394377102615E+08, -6.692562242405019E+07,
2459930.500000000, A.D. 2022-Dec-17 00:00:00.0000, -4.717107349290537E+08, 1.256658557814580E+08, -6.689778813756547E+07,
2459937.500000000, A.D. 2022-Dec-24 00:00:00.0000, -4.742487412588457E+08, 1.166412665590288E+08, -6.684280254438422E+07,
2459944.500000000, A.D. 2022-Dec-31 00:00:00.0000, -4.765946043981474E+08, 1.075693895335760E+08, -6.676072258698773E+07,
2459951.500000000, A.D. 2023-Jan-07 00:00:00.0000, -4.787475938731316E+08, 9.845394768692183E+07, -6.665161269540735E+07,
2459958.500000000, A.D. 2023-Jan-14 00:00:00.0000, -4.807070319477268E+08, 8.929866940940830E+07, -6.651554456535085E+07,
2459965.500000000, A.D. 2023-Jan-21 00:00:00.0000, -4.824722955790445E+08, 8.010728866674964E+07, -6.635259690122767E+07,
2459972.500000000, A.D. 2023-Jan-28 00:00:00.0000, -4.840428167575412E+08, 7.088354322060016E+07, -6.616285547650656E+07,
2459979.500000000, A.D. 2023-Feb-04 00:00:00.0000, -4.854180814391276E+08, 6.163117392935394E+07, -6.594641324422228E+07,
2459986.500000000, A.D. 2023-Feb-11 00:00:00.0000, -4.865976288641717E+08, 5.235392493330655E+07, -6.570337034849806E+07,
2459993.500000000, A.D. 2023-Feb-18 00:00:00.0000, -4.875810513276513E+08, 4.305554389951120E+07, -6.543383409872662E+07,
2460000.500000000, A.D. 2023-Feb-25 00:00:00.0000, -4.883679941382563E+08, 3.373978216386169E+07, -6.513791894376009E+07,
2460007.500000000, A.D. 2023-Mar-04 00:00:00.0000, -4.889581556641283E+08, 2.441039478857710E+07, -6.481574645371556E+07,
2460014.500000000, A.D. 2023-Mar-11 00:00:00.0000, -4.893512874361728E+08, 1.507114053477509E+07, -6.446744531162175E+07,
2460021.500000000, A.D. 2023-Mar-18 00:00:00.0000, -4.895471942613040E+08, 5.725781699683536E+06, -6.409315132285756E+07,
2460028.500000000, A.D. 2023-Mar-25 00:00:00.0000, -4.895457341416667E+08, -3.621916229850531E+06, -6.369300746444618E+07,
2460035.500000000, A.D. 2023-Apr-01 00:00:00.0000, -4.893468175746039E+08, -1.296818471551189E+07, -6.326716398053927E+07,
2460042.500000000, A.D. 2023-Apr-08 00:00:00.0000, -4.889504068481039E+08, -2.230925087412186E+07, -6.281577836714508E+07,
2460049.500000000, A.D. 2023-Apr-15 00:00:00.0000, -4.883565176690051E+08, -3.164133586115716E+07, -6.233901512209161E+07,
2460056.500000000, A.D. 2023-Apr-22 00:00:00.0000, -4.875652213165801E+08, -4.096065598493744E+07, -6.183704567599449E+07,
2460063.500000000, A.D. 2023-Apr-29 00:00:00.0000, -4.865766445875586E+08, -5.026342429909639E+07, -6.131004857114838E+07,
2460070.500000000, A.D. 2023-May-06 00:00:00.0000, -4.853909692922661E+08, -5.954585089286368E+07, -6.075820958109464E+07,
2460077.500000000, A.D. 2023-May-13 00:00:00.0000, -4.840084322785242E+08, -6.880414277406982E+07, -6.018172175434136E+07,
2460084.500000000, A.D. 2023-May-20 00:00:00.0000, -4.824293257496209E+08, -7.803450383690354E+07, -5.958078544409753E+07,
2460091.500000000, A.D. 2023-May-27 00:00:00.0000, -4.806539976825975E+08, -8.723313494431195E+07, -5.895560834417967E+07,
2460098.500000000, A.D. 2023-Jun-03 00:00:00.0000, -4.786828522880359E+08, -9.639623409994003E+07, -5.830640553401184E+07,
2460105.500000000, A.D. 2023-Jun-10 00:00:00.0000, -4.765163504862359E+08, -1.055199967252105E+08, -5.763339953587022E+07,
2460112.500000000, A.D. 2023-Jun-17 00:00:00.0000, -4.741550103102314E+08, -1.146006161041611E+08, -5.693682039762104E+07,
2460119.500000000, A.D. 2023-Jun-24 00:00:00.0000, -4.715994069161482E+08, -1.236342839428737E+08, -5.621690582621656E+07,
2460126.500000000, A.D. 2023-Jul-01 00:00:00.0000, -4.688501719485909E+08, -1.326171902172327E+08, -5.547390132796603E+07,
2460133.500000000, A.D. 2023-Jul-08 00:00:00.0000, -4.659079939354756E+08, -1.415455214884123E+08, -5.470806013514904E+07,
2460140.500000000, A.D. 2023-Jul-15 00:00:00.0000, -4.627736209896201E+08, -1.504154605176694E+08, -5.391964303340062E+07,
$$EOE